IRIDIUM 33 DEB          
1 36080U 97051VM  26088.38131919  .00001976  00000+0  53591-3 0  9996
2 36080  86.3181 321.5254 0017617 171.4049 188.7459 14.47123208489562
IRIDIUM 33 DEB          
1 36083U 97051VQ  26092.42935390  .00002119  00000+0  61630-3 0  9997
2 36083  86.3474 346.5042 0024570 217.2187 142.7312 14.43704142870469
IRIDIUM 33 DEB          
1 36390U 97051VU  26088.17281346  .00011185  00000+0  16396-2 0  9991
2 36390  86.2880 250.5272 0030012 157.4006 202.8542 14.75182873678300
IRIDIUM 33 DEB          
1 36483U 97051VZ  26092.47688977  .00002135  00000+0  59039-3 0  9990
2 36483  86.3844   5.0774 0010856 113.6210 246.6133 14.46280844667461
IRIDIUM 33 DEB          
1 36490U 97051WG  26092.35092249  .00014780  00000+0  19780-2 0  9993
2 36490  86.3642 320.4572 0004829  51.8952 308.2704 14.79369642881180
IRIDIUM 33 DEB          
1 36493U 97051WK  26092.90372468  .00010199  00000+0  18136-2 0  9995
2 36493  86.3567 322.2394 0010002 342.2696  17.8167 14.67022562761472
IRIDIUM 33 DEB          
1 37548U 97051XH  26093.00092073  .00004755  00000+0  11608-2 0  9998
2 37548  86.3552 354.9233 0023750 174.7918 185.3540 14.52297087671466
IRIDIUM 33 DEB          
1 37550U 97051XK  26092.91089017  .00011964  00000+0  20275-2 0  9994
2 37550  86.3786 334.5454 0005358  84.6881 275.4946 14.69178258879646
IRIDIUM 33 DEB          
1 37562U 97051XX  26081.53109323  .00005460  00000+0  11883-2 0  9995
2 37562  86.3789   0.0548 0025538 124.1616  54.2204 14.57637636877813
IRIDIUM 33 DEB          
1 37565U 97051YA  26088.92873342  .00002147  00000+0  52487-3 0  9992
2 37565  86.3497 322.8879 0014900  81.9377 278.3519 14.52093593673926
IRIDIUM 33 DEB          
1 38017U 97051YD  26092.49680326  .00007197  00000+0  16766-2 0  9999
2 38017  86.3375 117.9168 0090133  97.0835 264.0630 14.52206042630088
IRIDIUM 33 DEB          
1 38022U 97051YJ  26088.93719374  .00004298  00000+0  12818-2 0  9998
2 38022  86.2705 329.4827 0046466  55.4214 305.1357 14.42234802707386
IRIDIUM 33 DEB          
1 38028U 97051YQ  26093.34111202  .00002274  00000+0  62204-3 0  9998
2 38028  86.3240 311.7630 0029771 110.1448 250.2962 14.46584470671083
IRIDIUM 33 DEB          
1 38228U 97051ZC  26093.72232634  .00001266  00000+0  49723-3 0  9996
2 38228  86.2996   0.8629 0063004 188.4831 200.4838 14.27503912863798
IRIDIUM 33 DEB          
1 38241U 97051ZR  26093.30380294  .00004592  00000+0  10458-2 0  9998
2 38241  86.3179 301.3571 0006628  55.1700 305.0130 14.55696176618236
IRIDIUM 33 DEB          
1 38474U 97051AAB 26092.36709420  .00002515  00000+0  62381-3 0  9993
2 38474  86.3424 321.8519 0027811  76.4852 283.9450 14.51310033669222
