[{"OBJECT_NAME":"IRIDIUM 33 DEB","OBJECT_ID":"1997-051VM","EPOCH":"2026-03-29T09:09:05.978016","MEAN_MOTION":14.47123208,"ECCENTRICITY":0.00176175,"INCLINATION":86.3181,"RA_OF_ASC_NODE":321.5254,"ARG_OF_PERICENTER":171.4049,"MEAN_ANOMALY":188.7459,"EPHEMERIS_TYPE":0,"CLASSIFICATION_TYPE":"U","NORAD_CAT_ID":36080,"ELEMENT_SET_NO":999,"REV_AT_EPOCH":48956,"BSTAR":0.00053590652,"MEAN_MOTION_DOT":1.976e-5,"MEAN_MOTION_DDOT":0},{"OBJECT_NAME":"IRIDIUM 33 DEB","OBJECT_ID":"1997-051VQ","EPOCH":"2026-04-02T10:18:16.176960","MEAN_MOTION":14.43704142,"ECCENTRICITY":0.00245704,"INCLINATION":86.3474,"RA_OF_ASC_NODE":346.5042,"ARG_OF_PERICENTER":217.2187,"MEAN_ANOMALY":142.7312,"EPHEMERIS_TYPE":0,"CLASSIFICATION_TYPE":"U","NORAD_CAT_ID":36083,"ELEMENT_SET_NO":999,"REV_AT_EPOCH":87046,"BSTAR":0.00061630175,"MEAN_MOTION_DOT":2.119e-5,"MEAN_MOTION_DDOT":0},{"OBJECT_NAME":"IRIDIUM 33 DEB","OBJECT_ID":"1997-051VU","EPOCH":"2026-03-29T04:08:51.082944","MEAN_MOTION":14.75182873,"ECCENTRICITY":0.00300126,"INCLINATION":86.288,"RA_OF_ASC_NODE":250.5272,"ARG_OF_PERICENTER":157.4006,"MEAN_ANOMALY":202.8542,"EPHEMERIS_TYPE":0,"CLASSIFICATION_TYPE":"U","NORAD_CAT_ID":36390,"ELEMENT_SET_NO":999,"REV_AT_EPOCH":67830,"BSTAR":0.0016396044,"MEAN_MOTION_DOT":0.00011185,"MEAN_MOTION_DDOT":0},{"OBJECT_NAME":"IRIDIUM 33 DEB","OBJECT_ID":"1997-051VZ","EPOCH":"2026-04-02T11:26:43.276128","MEAN_MOTION":14.46280844,"ECCENTRICITY":0.00108566,"INCLINATION":86.3844,"RA_OF_ASC_NODE":5.0774,"ARG_OF_PERICENTER":113.621,"MEAN_ANOMALY":246.6133,"EPHEMERIS_TYPE":0,"CLASSIFICATION_TYPE":"U","NORAD_CAT_ID":36483,"ELEMENT_SET_NO":999,"REV_AT_EPOCH":66746,"BSTAR":0.00059039445,"MEAN_MOTION_DOT":2.135e-5,"MEAN_MOTION_DDOT":0},{"OBJECT_NAME":"IRIDIUM 33 DEB","OBJECT_ID":"1997-051WG","EPOCH":"2026-04-02T08:25:19.703136","MEAN_MOTION":14.79369642,"ECCENTRICITY":0.00048293,"INCLINATION":86.3642,"RA_OF_ASC_NODE":320.4572,"ARG_OF_PERICENTER":51.8952,"MEAN_ANOMALY":308.2704,"EPHEMERIS_TYPE":0,"CLASSIFICATION_TYPE":"U","NORAD_CAT_ID":36490,"ELEMENT_SET_NO":999,"REV_AT_EPOCH":88118,"BSTAR":0.0019780245,"MEAN_MOTION_DOT":0.0001478,"MEAN_MOTION_DDOT":0},{"OBJECT_NAME":"IRIDIUM 33 DEB","OBJECT_ID":"1997-051WK","EPOCH":"2026-04-02T21:41:21.812352","MEAN_MOTION":14.67022562,"ECCENTRICITY":0.00100024,"INCLINATION":86.3567,"RA_OF_ASC_NODE":322.2394,"ARG_OF_PERICENTER":342.2696,"MEAN_ANOMALY":17.8167,"EPHEMERIS_TYPE":0,"CLASSIFICATION_TYPE":"U","NORAD_CAT_ID":36493,"ELEMENT_SET_NO":999,"REV_AT_EPOCH":76147,"BSTAR":0.0018135711,"MEAN_MOTION_DOT":0.00010199,"MEAN_MOTION_DDOT":0},{"OBJECT_NAME":"IRIDIUM 33 DEB","OBJECT_ID":"1997-051XH","EPOCH":"2026-04-03T00:01:19.551072","MEAN_MOTION":14.52297087,"ECCENTRICITY":0.00237508,"INCLINATION":86.3552,"RA_OF_ASC_NODE":354.9233,"ARG_OF_PERICENTER":174.7918,"MEAN_ANOMALY":185.354,"EPHEMERIS_TYPE":0,"CLASSIFICATION_TYPE":"U","NORAD_CAT_ID":37548,"ELEMENT_SET_NO":999,"REV_AT_EPOCH":67146,"BSTAR":0.0011608077,"MEAN_MOTION_DOT":4.755e-5,"MEAN_MOTION_DDOT":0},{"OBJECT_NAME":"IRIDIUM 33 DEB","OBJECT_ID":"1997-051XK","EPOCH":"2026-04-02T21:51:40.910688","MEAN_MOTION":14.69178258,"ECCENTRICITY":0.00053584,"INCLINATION":86.3786,"RA_OF_ASC_NODE":334.5454,"ARG_OF_PERICENTER":84.6881,"MEAN_ANOMALY":275.4946,"EPHEMERIS_TYPE":0,"CLASSIFICATION_TYPE":"U","NORAD_CAT_ID":37550,"ELEMENT_SET_NO":999,"REV_AT_EPOCH":87964,"BSTAR":0.0020274658,"MEAN_MOTION_DOT":0.00011964,"MEAN_MOTION_DDOT":0},{"OBJECT_NAME":"IRIDIUM 33 DEB","OBJECT_ID":"1997-051XX","EPOCH":"2026-03-22T12:44:46.455072","MEAN_MOTION":14.57637636,"ECCENTRICITY":0.00255381,"INCLINATION":86.3789,"RA_OF_ASC_NODE":0.0548,"ARG_OF_PERICENTER":124.1616,"MEAN_ANOMALY":54.2204,"EPHEMERIS_TYPE":0,"CLASSIFICATION_TYPE":"U","NORAD_CAT_ID":37562,"ELEMENT_SET_NO":999,"REV_AT_EPOCH":87781,"BSTAR":0.001188295,"MEAN_MOTION_DOT":5.46e-5,"MEAN_MOTION_DDOT":0},{"OBJECT_NAME":"IRIDIUM 33 DEB","OBJECT_ID":"1997-051YA","EPOCH":"2026-03-29T22:17:22.567488","MEAN_MOTION":14.52093593,"ECCENTRICITY":0.00149004,"INCLINATION":86.3497,"RA_OF_ASC_NODE":322.8879,"ARG_OF_PERICENTER":81.9377,"MEAN_ANOMALY":278.3519,"EPHEMERIS_TYPE":0,"CLASSIFICATION_TYPE":"U","NORAD_CAT_ID":37565,"ELEMENT_SET_NO":999,"REV_AT_EPOCH":67392,"BSTAR":0.00052487239,"MEAN_MOTION_DOT":2.147e-5,"MEAN_MOTION_DDOT":0},{"OBJECT_NAME":"IRIDIUM 33 DEB","OBJECT_ID":"1997-051YD","EPOCH":"2026-04-02T11:55:23.801664","MEAN_MOTION":14.52206042,"ECCENTRICITY":0.00901339,"INCLINATION":86.3375,"RA_OF_ASC_NODE":117.9168,"ARG_OF_PERICENTER":97.0835,"MEAN_ANOMALY":264.063,"EPHEMERIS_TYPE":0,"CLASSIFICATION_TYPE":"U","NORAD_CAT_ID":38017,"ELEMENT_SET_NO":999,"REV_AT_EPOCH":63008,"BSTAR":0.00167658,"MEAN_MOTION_DOT":7.197e-5,"MEAN_MOTION_DDOT":0},{"OBJECT_NAME":"IRIDIUM 33 DEB","OBJECT_ID":"1997-051YJ","EPOCH":"2026-03-29T22:29:33.539136","MEAN_MOTION":14.42234802,"ECCENTRICITY":0.00464668,"INCLINATION":86.2705,"RA_OF_ASC_NODE":329.4827,"ARG_OF_PERICENTER":55.4214,"MEAN_ANOMALY":305.1357,"EPHEMERIS_TYPE":0,"CLASSIFICATION_TYPE":"U","NORAD_CAT_ID":38022,"ELEMENT_SET_NO":999,"REV_AT_EPOCH":70738,"BSTAR":0.0012818272,"MEAN_MOTION_DOT":4.298e-5,"MEAN_MOTION_DDOT":0},{"OBJECT_NAME":"IRIDIUM 33 DEB","OBJECT_ID":"1997-051YQ","EPOCH":"2026-04-03T08:11:12.078528","MEAN_MOTION":14.4658447,"ECCENTRICITY":0.00297716,"INCLINATION":86.324,"RA_OF_ASC_NODE":311.763,"ARG_OF_PERICENTER":110.1448,"MEAN_ANOMALY":250.2962,"EPHEMERIS_TYPE":0,"CLASSIFICATION_TYPE":"U","NORAD_CAT_ID":38028,"ELEMENT_SET_NO":999,"REV_AT_EPOCH":67108,"BSTAR":0.00062204239,"MEAN_MOTION_DOT":2.274e-5,"MEAN_MOTION_DDOT":0},{"OBJECT_NAME":"IRIDIUM 33 DEB","OBJECT_ID":"1997-051ZC","EPOCH":"2026-04-03T17:20:08.995776","MEAN_MOTION":14.27503912,"ECCENTRICITY":0.0063004,"INCLINATION":86.2996,"RA_OF_ASC_NODE":0.8629,"ARG_OF_PERICENTER":188.4831,"MEAN_ANOMALY":200.4838,"EPHEMERIS_TYPE":0,"CLASSIFICATION_TYPE":"U","NORAD_CAT_ID":38228,"ELEMENT_SET_NO":999,"REV_AT_EPOCH":86379,"BSTAR":0.00049723495,"MEAN_MOTION_DOT":1.266e-5,"MEAN_MOTION_DDOT":0},{"OBJECT_NAME":"IRIDIUM 33 DEB","OBJECT_ID":"1997-051ZR","EPOCH":"2026-04-03T07:17:28.574016","MEAN_MOTION":14.55696176,"ECCENTRICITY":0.0006628,"INCLINATION":86.3179,"RA_OF_ASC_NODE":301.3571,"ARG_OF_PERICENTER":55.17,"MEAN_ANOMALY":305.013,"EPHEMERIS_TYPE":0,"CLASSIFICATION_TYPE":"U","NORAD_CAT_ID":38241,"ELEMENT_SET_NO":999,"REV_AT_EPOCH":61823,"BSTAR":0.0010458,"MEAN_MOTION_DOT":4.592e-5,"MEAN_MOTION_DDOT":0},{"OBJECT_NAME":"IRIDIUM 33 DEB","OBJECT_ID":"1997-051AAB","EPOCH":"2026-04-02T08:48:36.938880","MEAN_MOTION":14.51310033,"ECCENTRICITY":0.00278113,"INCLINATION":86.3424,"RA_OF_ASC_NODE":321.8519,"ARG_OF_PERICENTER":76.4852,"MEAN_ANOMALY":283.945,"EPHEMERIS_TYPE":0,"CLASSIFICATION_TYPE":"U","NORAD_CAT_ID":38474,"ELEMENT_SET_NO":999,"REV_AT_EPOCH":66922,"BSTAR":0.00062381036,"MEAN_MOTION_DOT":2.515e-5,"MEAN_MOTION_DDOT":0}]
